full_name,a,e,i,om,w,q,ad,per_y,data_arc,condition_code,n_obs_used,n_del_obs_used,n_dop_obs_used,H,neo,pha,diameter,diameter_sigma
10555 Tagaharue (1993 HH),3.205,0.0690,16.81,37.46,143.26,2.984,3.43,5.74,11627,0,2991,,,12.54,N,N,15.845,0.16
10561 Shimizumasahiro (1993 TE2),2.756,0.1639,9.91,19.08,315.05,2.304,3.21,4.57,22361,0,2736,,,13.42,N,N,10.027,0.10
10565 (1994 AT1),2.652,0.2282,13.76,55.42,329.31,2.047,3.26,4.32,32805,0,4318,,,12.72,N,N,13.724,0.20
10579 Diluca (1995 OE),3.063,0.0592,8.89,255.37,209.13,2.881,3.24,5.36,16270,0,2840,,,12.67,N,N,11.772,0.15
10582 Harumi (1995 TG),3.098,0.1832,12.18,60.22,301.26,2.530,3.66,5.45,11756,0,2856,,,12.79,N,N,15.391,0.41
10583 Kanetugu (1995 WC4),3.11,0.2279,14.69,61.61,274.04,2.401,3.82,5.48,17932,0,3415,,,12.15,N,N,20.792,0.23
10593 Susannesandra (1996 QQ1),3.116,0.2145,2.14,108.34,276.82,2.447,3.78,5.5,11185,0,2783,,,13.21,N,N,14.267,0.21
10597 (1996 TR10),2.395,0.2571,10.63,160.17,144.49,1.779,3.01,3.71,15097,0,3556,,,13.28,N,N,12.520,0.07
10601 Hiwatashi (1996 UC),3.141,0.2549,2.99,91.39,279.71,2.340,3.94,5.57,17395,0,2347,,,13.42,N,N,12.251,0.30
10604 Susanoo (1996 VJ),3.171,0.1165,11.13,50.74,358.14,2.802,3.54,5.65,11099,0,1915,,,13.56,N,N,11.867,0.15
10606 Crocco (1996 VD1),3.144,0.1004,17.66,40.96,263.64,2.828,3.46,5.57,13881,0,1779,,,13.52,N,N,10.071,0.38
10608 Mameta (1996 VB9),3.996,0.2560,4.52,159.92,258.29,2.973,5.02,7.99,12023,0,2842,,,11.93,N,N,25.184,0.55
10610 (1996 XR1),3.962,0.2195,4.63,87.43,283.51,3.092,4.83,7.89,18504,0,2281,,,12.40,N,N,23.153,0.32
10611 Yanjici (1997 BB1),3.192,0.0772,11.45,253.85,356.02,2.946,3.44,5.7,17841,0,3222,,,12.15,N,N,17.309,0.22
10623 (1997 YP7),3.149,0.1479,5.76,43.66,286.83,2.683,3.61,5.59,18797,0,2769,,,12.95,N,N,14.645,0.12
10624 (1997 YR13),3.203,0.1403,0.13,209.44,177.22,2.753,3.65,5.73,11523,0,2592,,,13.22,N,N,12.371,0.45
10625 (1998 AC8),3.181,0.1663,0.51,199.22,231.66,2.652,3.71,5.67,15615,0,2712,,,13.18,N,N,13.404,3.13
10628 Feuerbacher (1998 BD5),3.118,0.1189,5.82,148.64,121.42,2.748,3.49,5.51,12169,0,2928,,,13.16,N,N,11.032,0.22
10631 (1998 BM15),3.153,0.0413,2.66,258.95,56.68,3.023,3.28,5.6,15233,0,2863,,,13.03,N,N,17.458,0.10
10632 (1998 CV1),3.932,0.2052,8.40,111.14,294.29,3.125,4.74,7.8,11836,0,2562,,,12.34,N,N,19.703,0.38
10637 Heimlich (1998 QP104),3.175,0.0247,13.69,24.13,125.09,3.097,3.25,5.66,16892,0,2698,,,12.60,N,N,14.318,2.31
10638 McGlothlin (1998 SV54),3.149,0.1494,6.29,167.46,68.44,2.678,3.62,5.59,13800,0,3025,,,12.97,N,N,15.032,0.91
10642 Charmaine (1999 BF8),3.072,0.0768,2.34,65.63,62.82,2.837,3.31,5.39,16185,0,2815,,,13.26,N,N,14.166,0.14
10645 Brac (1999 ES4),2.657,0.1841,12.52,351.55,44.81,2.168,3.15,4.33,21974,0,4106,,,12.61,N,N,10.261,0.11
10654 Bontekoe (6673 P-L),3.26,0.0291,21.97,169.94,239.75,3.165,3.36,5.89,22765,0,2334,,,12.88,N,N,14.150,0.14
10658 Gretadevries (2281 T-1),2.787,0.0769,4.70,163.28,236.65,2.573,3.00,4.65,18691,0,2845,,,13.70,N,N,11.466,0.14
10664 Phemios (5187 T-2),5.2,0.0319,8.57,240.12,231.71,5.035,5.37,11.9,25161,0,1908,,,11.46,N,N,30.963,0.60
10668 Plansos (1976 UB1),2.622,0.1746,13.01,151.45,31.61,2.164,3.08,4.24,16893,0,3024,,,13.51,N,N,10.886,0.27
10670 Seminozhenko (1977 PP1),2.748,0.1053,5.04,198.67,165.46,2.459,3.04,4.56,16456,0,2742,,,13.52,N,N,11.862,3.01
10672 Kostyukova (1978 QE),3.032,0.1161,15.00,283.34,61.78,2.680,3.38,5.28,17542,0,3454,,,11.84,N,N,22.209,0.35
10681 Khture (1979 TH2),3.142,0.1727,1.14,25.18,47.77,2.599,3.68,5.57,15661,0,2307,,,13.41,N,N,12.700,0.13
10688 Haghighipour (1981 DK),3.145,0.1789,9.59,280.80,117.17,2.582,3.71,5.58,17858,0,1943,,,12.82,N,N,16.735,0.32
10689 Pinillaalonso (1981 DZ1),3.214,0.0750,21.98,206.13,296.63,2.973,3.46,5.76,16025,0,2416,,,13.29,N,N,12.679,0.10
10694 Lacerda (1981 EH21),3.206,0.0356,22.09,177.87,130.10,3.092,3.32,5.74,15167,0,2190,,,13.32,N,N,11.708,0.16
10699 Calabrese (1981 ES43),3.212,0.0448,2.51,202.76,184.84,3.068,3.36,5.76,15112,0,1590,,,14.05,N,N,10.271,0.22
10711 Pskov (1982 TT2),2.739,0.2225,12.35,12.01,331.18,2.130,3.35,4.53,24483,0,2481,,,13.15,N,N,13.010,3.39
10714 (1983 QG),2.64,0.3490,14.30,80.28,280.01,1.718,3.56,4.29,15737,0,1980,,,13.77,N,N,10.535,0.19
10716 Olivermorton (1983 WQ),2.672,0.1186,9.80,56.10,295.81,2.355,2.99,4.37,14303,0,2770,,,13.24,N,N,15.090,0.12
10727 Akitsushima (1987 DN),3.132,0.0260,5.71,314.28,198.22,3.051,3.21,5.54,13055,0,2968,,,12.70,N,N,10.138,0.12
10748 (1989 CE8),2.728,0.0939,9.48,253.90,179.69,2.472,2.98,4.51,12252,0,2792,,,13.36,N,N,14.124,0.46
10751 (1989 UV1),3.096,0.2340,0.73,19.59,319.89,2.372,3.82,5.45,16207,0,2693,,,13.68,N,N,10.518,0.05
10765 (1990 UZ),3.013,0.1214,11.34,85.58,261.13,2.647,3.38,5.23,16332,0,3447,,,11.88,N,N,14.480,0.20
10766 (1990 UB1),3.137,0.1596,14.79,32.51,14.35,2.636,3.64,5.56,17033,0,2816,,,12.13,N,N,21.495,0.45
10769 Minas Gerais (1990 UJ5),3.075,0.0930,9.50,174.63,157.83,2.789,3.36,5.39,11786,0,3239,,,12.88,N,N,10.013,0.06
10773 Jamespaton (1991 AK2),3.201,0.0750,21.13,216.63,203.95,2.960,3.44,5.73,11552,0,1462,,,13.84,N,N,10.248,0.21
10779 (1991 LW),2.569,0.1818,12.12,90.98,115.63,2.102,3.04,4.12,25045,0,2222,,,13.71,N,N,12.227,0.12
10791 Uson (1992 CS),3.234,0.0828,23.54,139.81,222.14,2.966,3.50,5.82,11570,0,3546,,,12.65,N,N,16.751,0.24
10792 Ecuador (1992 CQ2),3.067,0.0960,10.27,157.16,175.51,2.773,3.36,5.37,12232,0,2935,,,12.89,N,N,10.088,0.28
10793 Quito (1992 CU2),3.166,0.0927,8.08,276.34,104.80,2.872,3.46,5.63,12539,0,2382,,,12.89,N,N,16.060,0.36
10794 Vange (1992 DW5),3.2,0.2205,1.92,40.55,303.16,2.494,3.90,5.72,16396,0,2300,,,13.42,N,N,10.629,0.16
10795 Babben (1992 EB5),3.212,0.0342,22.54,151.27,13.16,3.103,3.32,5.76,12926,0,3041,,,12.26,N,N,17.035,0.13
10806 Mexico (1993 FA2),3.19,0.1062,6.16,98.09,79.79,2.851,3.53,5.7,12987,0,2608,,,13.37,N,N,11.493,0.16
10807 Uggarde (1993 FT4),3.168,0.1310,2.65,123.22,111.86,2.753,3.58,5.64,15210,0,2528,,,13.25,N,N,12.687,0.14
10809 Majsterrojr (1993 FS14),3.148,0.1736,6.44,104.51,296.32,2.601,3.69,5.59,11171,0,2656,,,13.16,N,N,13.198,0.19
10810 Lejsturojr (1993 FL15),3.041,0.1240,4.11,86.83,313.90,2.664,3.42,5.3,15387,0,2474,,,13.72,N,N,11.520,0.55
10813 Masterby (1993 FE31),3.209,0.0446,21.71,181.33,99.96,3.066,3.35,5.75,10742,0,2720,,,12.76,N,N,13.707,0.14
10816 (1993 FZ35),3.134,0.1486,2.65,116.34,218.06,2.668,3.60,5.55,12168,0,2068,,,13.83,N,N,10.961,0.09
10817 (1993 FR44),3.116,0.1335,4.20,333.81,128.17,2.700,3.53,5.5,15679,0,2516,,,12.83,N,N,16.169,0.21
10840 (1994 LR),3.086,0.0427,12.63,94.63,134.84,2.954,3.22,5.42,18490,0,3122,,,12.08,N,N,23.704,0.07
10856 Bechstein (1995 EG8),3.174,0.2378,25.89,354.17,309.88,2.419,3.93,5.65,25219,0,2154,,,12.72,N,N,17.313,0.29
10862 (1995 QE2),3.038,0.2340,22.66,225.25,147.13,2.327,3.75,5.3,11763,0,1954,,,13.67,N,N,10.925,0.25
10864 Yamagatashi (1995 QS3),3.165,0.1316,12.36,305.11,71.61,2.748,3.58,5.63,13852,0,2449,,,12.50,N,N,20.641,0.32
10865 Thelmaruby (1995 SO33),3.098,0.1034,0.97,11.09,195.94,2.778,3.42,5.45,16680,0,2769,,,13.26,N,N,11.966,0.27
10883 (1996 VU5),3.125,0.1794,2.22,136.98,278.41,2.564,3.69,5.52,11634,0,2033,,,13.70,N,N,10.819,0.40
10885 Horimasato (1996 VE9),3.008,0.0392,10.99,78.02,101.81,2.890,3.13,5.22,26255,0,3090,,,12.35,N,N,11.402,0.13
10886 Mitsuroohba (1996 VR30),3.175,0.0186,6.63,268.16,248.04,3.116,3.23,5.66,12063,0,2675,,,12.93,N,N,19.519,0.28
10888 Yamatano-orochi (1996 XT30),3.183,0.0813,18.12,80.34,149.40,2.924,3.44,5.68,14742,0,2311,,,12.85,N,N,16.906,0.08
10889 (1997 AO1),3.933,0.0681,5.20,112.40,173.63,3.665,4.20,7.8,13229,0,3088,,,11.85,N,N,33.20,3.00
10890 (1997 AY2),3.147,0.2446,10.45,88.05,280.79,2.377,3.92,5.58,13806,0,2386,,,12.99,N,N,12.754,0.24
10894 Nakai (1997 SE30),3.066,0.2190,1.97,240.51,245.64,2.395,3.74,5.37,14831,0,1826,,,13.73,N,N,10.008,0.18
10908 Kallestroetzel (1997 XH9),3.045,0.1847,3.56,54.18,335.20,2.482,3.61,5.31,23485,0,2569,,,13.40,N,N,12.199,0.59
10919 Pepikzicha (1998 AQ8),2.817,0.0196,4.26,237.48,96.29,2.762,2.87,4.73,9828,0,2435,,,13.96,N,N,10.396,0.06
10920 (1998 BC1),3.177,0.1499,0.30,182.16,279.67,2.700,3.65,5.66,15642,0,2766,,,13.04,N,N,15.712,0.19
10923 (1998 BM12),3.089,0.1712,0.45,228.07,260.27,2.560,3.62,5.43,18904,0,2288,,,13.81,N,N,10.160,0.15
10926 (1998 BF41),3.072,0.1691,2.72,147.61,280.46,2.553,3.59,5.38,21175,0,2057,,,13.64,N,N,10.229,0.25
10928 Caprara (1998 BW43),2.782,0.2221,8.67,35.40,6.17,2.164,3.40,4.64,15422,0,2699,,,13.63,N,N,13.363,0.08
10929 Chenfangyun (1998 CF1),3.157,0.1032,1.54,34.03,182.23,2.831,3.48,5.61,16072,0,2869,,,13.20,N,N,13.147,0.14
10931 Ceccano (1998 DA),2.695,0.0529,6.32,97.08,182.33,2.552,2.84,4.42,12840,0,3484,,,13.32,N,N,11.652,0.12
10934 Pauldelvaux (1998 DN34),3.211,0.0638,3.52,102.12,57.71,3.006,3.42,5.76,12039,0,2983,,,12.77,N,N,17.390,0.16
10936 (1998 FN11),2.43,0.2747,13.82,227.34,156.90,1.763,3.10,3.79,20449,0,3274,,,12.79,N,N,11.140,0.23
10937 Ferris (1998 QW54),3.219,0.0201,4.72,208.98,158.99,3.154,3.28,5.78,21243,0,2996,,,12.62,N,N,10.310,0.98
10938 Lorenzalevy (1998 SW60),3.219,0.0689,21.75,8.58,292.00,2.997,3.44,5.77,23472,0,2844,,,11.87,N,N,24.392,0.15
10944 (1999 FJ26),2.544,0.1688,4.27,261.79,343.55,2.115,2.97,4.06,35363,0,3808,,,13.03,N,N,14.661,0.05
10946 (1999 HR2),2.855,0.2173,15.86,47.16,65.48,2.234,3.48,4.82,19809,0,2385,,,13.12,N,N,16.120,0.16
10949 Konigstuhl (3066 P-L),2.717,0.0321,12.65,210.43,173.96,2.630,2.80,4.48,25079,0,2210,,,13.87,N,N,10.044,0.44
10952 Vogelsberg (4152 P-L),2.909,0.2287,12.79,189.25,100.72,2.244,3.57,4.96,22764,0,1712,,,13.60,N,N,10.779,0.29
10989 Dolios (1973 SL1),5.175,0.0878,10.58,187.31,207.31,4.720,5.63,11.8,18024,0,2226,,,11.35,N,N,23.564,0.31
10998 (1978 UN4),3.104,0.0927,14.00,212.57,35.43,2.817,3.39,5.47,16160,0,2815,,,13.22,N,N,13.674,0.19
11004 Stenmark (1980 FJ1),3.213,0.1627,16.79,351.73,347.68,2.690,3.74,5.76,16868,0,2750,,,11.99,N,N,23.041,0.09
11014 Svatopluk (1982 QY1),2.652,0.1233,7.01,244.00,135.16,2.325,2.98,4.32,14766,0,2924,,,12.98,N,N,14.144,0.04
